NORAD_CAT_ID,OBJECT_NAME,OBJECT_TYPE,EPOCH,MEAN_MOTION,ECCENTRICITY,INCLINATION,RA_OF_ASC_NODE,ARG_OF_PERICENTER,MEAN_ANOMALY,BSTAR,MEAN_MOTION_DOT,MEAN_MOTION_DDOT,TLE_LINE0,TLE_LINE1,TLE_LINE2,SEMIMAJOR_AXIS,PERIOD,APOGEE,PERIGEE,DECAYED
54783.0,STARLINK-5439,PAYLOAD,2024-03-25 18:43:22,15.08812836,0.000146,53.2171,353.9704,85.9284,274.1875,-0.00061451,-0.00010047,0.0,0 STARLINK-5439,1 54783U 22175AB  24085.78012631 -.00010047  00000-0 -61451-3 0  9995,2 54783  53.2171 353.9704 0001460  85.9284 274.1875 15.08812836 70199,6917.963,95.439,540.838,538.818,0.0
54783.0,STARLINK-5439,PAYLOAD,2024-03-25 21:54:08,15.08829124,0.0001647,53.2174,353.3737,101.1918,258.9259,-0.00030356,-5.115e-05,0.0,0 STARLINK-5439,1 54783U 22175AB  24085.91259957 -.00005115  00000-0 -30356-3 0  9994,2 54783  53.2174 353.3737 0001647 101.1918 258.9259 15.08829124 72370,6917.914,95.438,540.918,538.639,0.0
54783.0,STARLINK-5439,PAYLOAD,2024-03-26 02:40:17,15.08833365,0.0001405,53.2183,352.4811,94.9015,265.2138,-0.00016625,-2.932e-05,0.0,0 STARLINK-5439,1 54783U 22175AB  24086.11131861 -.00002932  00000-0 -16625-3 0  9997,2 54783  53.2183 352.4811 0001405  94.9015 265.2138 15.08833365 70245,6917.901,95.438,540.738,538.794,0.0
54783.0,STARLINK-5439,PAYLOAD,2024-03-26 10:37:13,15.08844199,0.0001148,53.2167,350.9942,83.1081,277.0042,6.9797e-05,8.23e-06,0.0,0 STARLINK-5439,1 54783U 22175AB  24086.44251409  .00000823  00000-0  69797-4 0  9998,2 54783  53.2167 350.9942 0001148  83.1081 277.0042 15.08844199 70299,6917.868,95.437,540.527,538.938,0.0
54783.0,STARLINK-5439,PAYLOAD,2024-03-26 16:58:47,15.08812499,9.08e-05,53.2177,349.8055,88.7039,271.4057,-0.00054444,-8.935e-05,0.0,0 STARLINK-5439,1 54783U 22175AB  24086.70749045 -.00008935  00000-0 -54444-3 0  9991,2 54783  53.2177 349.8055 0000908  88.7039 271.4057 15.08812499 70336,6917.964,95.439,540.458,539.201,0.0
54783.0,STARLINK-5439,PAYLOAD,2024-03-26 21:44:55,15.08841559,0.0001673,53.2176,348.9127,143.9796,216.131,0.00070978,0.00011027,0.0,0 STARLINK-5439,1 54783U 22175AB  24086.90619665  .00011027  00000-0  70978-3 0  9991,2 54783  53.2176 348.9127 0001673 143.9796 216.1310 15.08841559 72529,6917.876,95.437,540.898,538.583,0.0
54783.0,STARLINK-5439,PAYLOAD,2024-03-27 00:55:41,15.08841793,0.0001124,53.2178,348.3202,121.441,238.6692,0.00037647,5.709e-05,0.0,0 STARLINK-5439,1 54783U 22175AB  24087.03867162  .00005709  00000-0  37647-3 0  9999,2 54783  53.2178 348.3202 0001124 121.4410 238.6692 15.08841793 70388,6917.875,95.437,540.517,538.962,0.0
54783.0,STARLINK-5439,PAYLOAD,2024-03-27 10:27:59,15.08862224,0.0001027,53.2189,346.5336,83.7017,276.4093,0.00029235,4.371e-05,0.0,0 STARLINK-5439,1 54783U 22175AB  24087.43609955  .00004371  00000-0  29235-3 0  9995,2 54783  53.2189 346.5336 0001027  83.7017 276.4093 15.08862224 70447,6917.812,95.436,540.388,538.967,0.0
54783.0,STARLINK-5439,PAYLOAD,2024-03-27 16:49:34,15.08818754,0.000167,53.2179,345.3479,85.4717,274.6466,0.00030658,4.592e-05,0.0,0 STARLINK-5439,1 54783U 22175AB  24087.70108832  .00004592  00000-0  30658-3 0  9999,2 54783  53.2179 345.3479 0001670  85.4717 274.6466 15.08818754 70488,6917.945,95.439,540.966,538.655,0.0
54783.0,STARLINK-5439,PAYLOAD,2024-03-27 23:11:04,15.08846031,0.0001156,53.2182,344.1584,94.7319,265.3806,0.00049839,7.654e-05,0.0,0 STARLINK-5439,1 54783U 22175AB  24087.96602640  .00007654  00000-0  49839-3 0  9996,2 54783  53.2182 344.1584 0001156  94.7319 265.3806 15.08846031 72684,6917.862,95.437,540.527,538.927,0.0
54783.0,STARLINK-5439,PAYLOAD,2024-03-28 02:21:49,15.08867622,0.0001144,53.2187,343.5605,94.4515,265.6608,0.00041101,6.264e-05,0.0,0 STARLINK-5439,1 54783U 22175AB  24088.09849481  .00006264  00000-0  41101-3 0  9997,2 54783  53.2187 343.5605 0001144  94.4515 265.6608 15.08867622 70543,6917.796,95.436,540.452,538.87,0.0
54783.0,STARLINK-5439,PAYLOAD,2024-03-28 10:18:44,15.08881293,0.0001357,53.2175,342.0758,71.5698,288.5442,0.00038265,5.814e-05,0.0,0 STARLINK-5439,1 54783U 22175AB  24088.42968224  .00005814  00000-0  38265-3 0  9998,2 54783  53.2175 342.0758 0001357  71.5698 288.5442 15.08881293 70592,6917.754,95.435,540.558,538.68,0.0
54783.0,STARLINK-5439,PAYLOAD,2024-03-28 23:01:52,15.08819751,7.04e-05,53.2176,339.6972,77.3564,282.7507,-0.00018137,-3.171e-05,0.0,0 STARLINK-5439,1 54783U 22175AB  24088.95963828 -.00003171  00000-0 -18137-3 0  9993,2 54783  53.2176 339.6972 0000704  77.3564 282.7507 15.08819751 72831,6917.942,95.439,540.294,539.32,0.0
54783.0,STARLINK-5439,PAYLOAD,2024-03-29 10:09:34,15.08837824,0.0001527,53.2196,337.6141,82.1327,277.9838,-0.0002005,-3.477e-05,0.0,0 STARLINK-5439,1 54783U 22175AB  24089.42331071 -.00003477  00000-0 -20050-3 0  9991,2 54783  53.2196 337.6141 0001527  82.1327 277.9838 15.08837824 70746,6917.887,95.438,540.808,538.696,0.0
54783.0,STARLINK-5439,PAYLOAD,2024-03-29 22:52:39,15.08829643,0.0001293,53.2179,335.236,87.8532,272.2608,4.9553e-05,5.01e-06,0.0,0 STARLINK-5439,1 54783U 22175AB  24089.95323771  .00000501  00000-0  49553-4 0  9990,2 54783  53.2179 335.2360 0001293  87.8532 272.2608 15.08829643 72985,6917.912,95.438,540.672,538.883,0.0
54783.0,STARLINK-5439,PAYLOAD,2024-03-30 02:03:25,15.08841351,0.000144,53.2186,334.6406,94.2792,265.8364,-0.00016177,-2.862e-05,0.0,0 STARLINK-5439,1 54783U 22175AB  24090.08571141 -.00002862  00000-0 -16177-3 0  9991,2 54783  53.2186 334.6406 0001440  94.2792 265.8364 15.08841351 73002,6917.876,95.437,540.737,538.745,0.0
54783.0,STARLINK-5439,PAYLOAD,2024-03-30 21:08:04,15.08826746,0.0001369,53.2189,331.0712,91.5942,268.5207,0.00029844,4.463e-05,0.0,0 STARLINK-5439,1 54783U 22175AB  24090.88060522  .00004463  00000-0  29844-3 0  9997,2 54783  53.2189 331.0712 0001369  91.5942 268.5207 15.08826746 70962,6917.921,95.438,540.733,538.839,0.0
54783.0,STARLINK-5439,PAYLOAD,2024-03-30 22:43:27,15.08828073,0.0001357,53.2181,330.7743,88.4548,271.66,0.00029608,4.426e-05,0.0,0 STARLINK-5439,1 54783U 22175AB  24090.94684538  .00004426  00000-0  29608-3 0  9990,2 54783  53.2181 330.7743 0001357  88.4548 271.6600 15.08828073 73137,6917.917,95.438,540.721,538.843,0.0
54783.0,STARLINK-5439,PAYLOAD,2024-03-31 01:54:13,15.08827312,0.0001388,53.2187,330.1803,89.1984,270.9167,0.0002835,4.225e-05,0.0,0 STARLINK-5439,1 54783U 22175AB  24091.07932711  .00004225  00000-0  28350-3 0  9994,2 54783  53.2187 330.1803 0001388  89.1984 270.9167 15.08827312 73157,6917.919,95.438,540.744,538.824,0.0
54783.0,STARLINK-5439,PAYLOAD,2024-03-31 22:34:14,15.08838568,0.0001208,53.2179,326.3148,87.9931,272.1199,0.00048152,7.383e-05,0.0,0 STARLINK-5439,1 54783U 22175AB  24091.94044471  .00007383  00000-0  48152-3 0  9997,2 54783  53.2179 326.3148 0001208  87.9931 272.1199 15.08838568 73284,6917.885,95.438,540.585,538.914,0.0
54783.0,STARLINK-5439,PAYLOAD,2024-04-01 14:28:05,15.08842309,0.0001349,53.2182,323.3482,104.9501,255.164,0.00019543,2.824e-05,0.0,0 STARLINK-5439,1 54783U 22175AB  24092.60284080  .00002824  00000-0  19543-3 0  9990,2 54783  53.2182 323.3482 0001349 104.9501 255.1640 15.08842309 73386,6917.873,95.437,540.672,538.805,0.0
54783.0,STARLINK-5439,PAYLOAD,2024-04-01 19:14:15,15.08836466,0.0001589,53.2183,322.4516,99.1095,261.0077,7.1942e-06,-1.74e-06,0.0,0 STARLINK-5439,1 54783U 22175AB  24092.80156475 -.00000174  00000-0  71942-5 0  9998,2 54783  53.2183 322.4516 0001589  99.1095 261.0077 15.08836466 71255,6917.891,95.438,540.855,538.657,0.0
54783.0,STARLINK-5439,PAYLOAD,2024-04-02 07:57:19,15.08845454,0.0001318,53.2187,320.0738,90.2025,269.9118,0.00012124,1.642e-05,0.0,0 STARLINK-5439,1 54783U 22175AB  24093.33148019  .00001642  00000-0  12124-3 0  9997,2 54783  53.2187 320.0738 0001318  90.2025 269.9118 15.08845454 71333,6917.864,95.437,540.64,538.817,0.0
54783.0,STARLINK-5439,PAYLOAD,2024-04-02 19:05:02,15.0883437,0.0001665,53.219,317.9942,100.2661,259.8519,-7.6338e-05,-1.503e-05,0.0,0 STARLINK-5439,1 54783U 22175AB  24093.79516727 -.00001503  00000-0 -76338-4 0  9998,2 54783  53.2190 317.9942 0001665 100.2661 259.8519 15.08834370 71408,6917.898,95.438,540.914,538.611,0.0
54783.0,STARLINK-5439,PAYLOAD,2024-04-02 22:15:48,15.08838032,0.0001785,53.2178,317.3979,96.1647,263.9548,-2.7514e-05,-7.26e-06,0.0,0 STARLINK-5439,1 54783U 22175AB  24093.92764595 -.00000726  00000-0 -27514-4 0  9999,2 54783  53.2178 317.3979 0001785  96.1647 263.9548 15.08838032 73586,6917.886,95.438,540.986,538.517,0.0
54783.0,STARLINK-5439,PAYLOAD,2024-04-03 07:48:07,15.08840729,0.000141,53.2194,315.614,94.4935,265.6218,5.4269e-05,5.76e-06,0.0,0 STARLINK-5439,1 54783U 22175AB  24094.32508841  .00000576  00000-0  54269-4 0  9992,2 54783  53.2194 315.6140 0001410  94.4935 265.6218 15.08840729 73647,6917.878,95.438,540.719,538.768,0.0
54783.0,STARLINK-5439,PAYLOAD,2024-04-03 20:31:12,15.08836095,0.0001279,53.2185,313.2345,89.9641,270.1498,0.00015649,2.203e-05,0.0,0 STARLINK-5439,1 54783U 22175AB  24094.85501119  .00002203  00000-0  15649-3 0  9998,2 54783  53.2185 313.2345 0001279  89.9641 270.1498 15.08836095 71565,6917.892,95.438,540.642,538.873,0.0
54783.0,STARLINK-5439,PAYLOAD,2024-04-04 07:38:54,15.08844359,0.0001208,53.217,311.1519,85.7811,274.3319,0.00016347,2.315e-05,0.0,0 STARLINK-5439,1 54783U 22175AB  24095.31868585  .00002315  00000-0  16347-3 0  9993,2 54783  53.2170 311.1519 0001208  85.7811 274.3319 15.08844359 71632,6917.867,95.437,540.568,538.896,0.0
54783.0,STARLINK-5439,PAYLOAD,2024-04-04 21:57:22,15.08841235,0.0001193,53.2167,308.4753,86.7348,273.3781,0.0002058,2.989e-05,0.0,0 STARLINK-5439,1 54783U 22175AB  24095.91484844  .00002989  00000-0  20580-3 0  9992,2 54783  53.2167 308.4753 0001193  86.7348 273.3781 15.08841235 73887,6917.877,95.437,540.567,538.916,0.0
54783.0,STARLINK-5439,PAYLOAD,2024-04-05 07:29:41,15.08841813,0.0001179,53.2164,306.6906,86.111,274.0017,0.00012954,1.774e-05,0.0,0 STARLINK-5439,1 54783U 22175AB  24096.31228794  .00001774  00000-0  12954-3 0  9994,2 54783  53.2164 306.6906 0001179  86.1110 274.0017 15.08841813 71788,6917.875,95.437,540.555,538.924,0.0
